[{"OBJECT_NAME":"STARLINK-6217","OBJECT_ID":"2023-088L","EPOCH":"2026-03-09T10:44:17.776608","MEAN_MOTION":15.02594659,"ECCENTRICITY":2.5e-5,"INCLINATION":43.0017,"RA_OF_ASC_NODE":108.7595,"ARG_OF_PERICENTER":325.32,"MEAN_ANOMALY":34.7627,"EPHEMERIS_TYPE":0,"CLASSIFICATION_TYPE":"U","NORAD_CAT_ID":57058,"ELEMENT_SET_NO":999,"REV_AT_EPOCH":15033,"BSTAR":0.00048557939,"MEAN_MOTION_DOT":6.372e-5,"MEAN_MOTION_DDOT":0},{"OBJECT_NAME":"OBJECT U","OBJECT_ID":"2017-042U","EPOCH":"2026-03-09T22:07:56.164512","MEAN_MOTION":15.00675308,"ECCENTRICITY":0.00148173,"INCLINATION":97.4238,"RA_OF_ASC_NODE":229.7372,"ARG_OF_PERICENTER":56.7191,"MEAN_ANOMALY":303.5451,"EPHEMERIS_TYPE":0,"CLASSIFICATION_TYPE":"U","NORAD_CAT_ID":42843,"ELEMENT_SET_NO":999,"REV_AT_EPOCH":47173,"BSTAR":0.00030670501,"MEAN_MOTION_DOT":3.834e-5,"MEAN_MOTION_DDOT":0}]
